NORAD_CAT_ID,OBJECT_NAME,OBJECT_TYPE,EPOCH,MEAN_MOTION,ECCENTRICITY,INCLINATION,RA_OF_ASC_NODE,ARG_OF_PERICENTER,MEAN_ANOMALY,BSTAR,MEAN_MOTION_DOT,MEAN_MOTION_DDOT,TLE_LINE0,TLE_LINE1,TLE_LINE2,SEMIMAJOR_AXIS,PERIOD,APOGEE,PERIGEE,DECAYED
54789.0,STARLINK-5446,PAYLOAD,2023-03-04 14:00:01,15.67051108,0.000155,53.2171,283.1242,37.3347,339.3172,-0.0055464,-0.005636,0.0,0 STARLINK-5446,1 54789U 22175AH  23063.58334491 -.00563600  00000-0 -55464-2 0  9999,2 54789  53.2171 283.1242 0001550  37.3347 339.3172 15.67051108 11851,6745.483,91.892,368.394,366.303,0.0
54789.0,STARLINK-5446,PAYLOAD,2023-03-04 22:00:00,15.66485779,0.0001444,53.2176,281.4925,60.1502,37.8959,-0.0069907,-0.00684045,0.0,0 STARLINK-5446,1 54789U 22175AH  23063.91667824 -.00684045  00000-0 -69907-2 0  9999,2 54789  53.2176 281.4925 0001444  60.1502  37.8959 15.66485779 11918,6747.106,91.926,369.945,367.997,0.0
54789.0,STARLINK-5446,PAYLOAD,2023-03-05 04:00:01,15.66159658,0.0001287,53.2172,280.2675,53.1262,15.4687,-0.0095596,-0.00912692,0.0,0 STARLINK-5446,1 54789U 22175AH  23064.16668981 -.00912692  00000-0 -95596-2 0  9997,2 54789  53.2172 280.2675 0001287  53.1262  15.4687 15.66159658 11951,6748.043,91.945,370.776,369.039,0.0
54789.0,STARLINK-5446,PAYLOAD,2023-03-05 14:00:01,15.65320369,0.0001175,53.2168,278.2263,84.2832,174.2226,-0.0094602,-0.00876408,0.0,0 STARLINK-5446,1 54789U 22175AH  23064.58334491 -.00876408  00000-0 -94602-2 0  9990,2 54789  53.2168 278.2263 0001175  84.2832 174.2226 15.65320369  1309,6750.455,91.994,373.113,371.526,0.0
54789.0,STARLINK-5446,PAYLOAD,2023-03-05 22:00:00,15.64670297,0.0001044,53.2175,276.5985,81.2742,256.3211,-0.0097417,-0.00878974,0.0,0 STARLINK-5446,1 54789U 22175AH  23064.91667824 -.00878974  00000-0 -97417-2 0  9993,2 54789  53.2175 276.5985 0001044  81.2742 256.3211 15.64670297 12069,6752.324,92.032,374.894,373.484,0.0
54789.0,STARLINK-5446,PAYLOAD,2023-03-06 14:00:01,15.6331323,0.0001433,53.2175,273.3425,57.8905,75.5656,-0.0092787,-0.00789127,0.0,0 STARLINK-5446,1 54789U 22175AH  23065.58334491 -.00789127  00000-0 -92787-2 0  9994,2 54789  53.2175 273.3425 0001433  57.8905  75.5656 15.63313230 12171,6756.231,92.112,379.064,377.128,0.0
54789.0,STARLINK-5446,PAYLOAD,2023-03-06 22:00:00,15.62651401,0.0001245,53.2178,271.7198,60.757,149.4471,-0.0093379,-0.00775008,0.0,0 STARLINK-5446,1 54789U 22175AH  23065.91667824 -.00775008  00000-0 -93379-2 0  9991,2 54789  53.2178 271.7198 0001245  60.7570 149.4471 15.62651401 12221,6758.139,92.151,380.845,379.162,0.0
54789.0,STARLINK-5446,PAYLOAD,2023-03-07 06:00:00,15.61960657,0.0001426,53.2169,270.0951,47.2682,238.919,-0.0089011,-0.00723676,0.0,0 STARLINK-5446,1 54789U 22175AH  23066.25001157 -.00723676  00000-0 -89011-2 0  9992,2 54789  53.2169 270.0951 0001426  47.2682 238.9190 15.61960657 12277,6760.131,92.192,382.96,381.032,0.0
54789.0,STARLINK-5446,PAYLOAD,2023-03-07 14:00:01,15.61438931,0.0001434,53.2173,268.4729,42.2128,319.0911,-0.011497,-0.00910162,0.0,0 STARLINK-5446,1 54789U 22175AH  23066.58334491 -.00910162  00000-0 -11497-1 0  9998,2 54789  53.2173 268.4729 0001434  42.2128 319.0911 15.61438931 12328,6761.637,92.223,384.471,382.532,0.0
54789.0,STARLINK-5446,PAYLOAD,2023-03-07 22:00:00,15.60674421,0.0001636,53.2174,266.8543,46.4752,29.2784,-0.0096249,-0.00742602,0.0,0 STARLINK-5446,1 54789U 22175AH  23066.91667824 -.00742602  00000-0 -96249-2 0  9995,2 54789  53.2174 266.8543 0001636  46.4752  29.2784 15.60674421  1307,6763.845,92.268,386.816,384.603,0.0
54789.0,STARLINK-5446,PAYLOAD,2023-03-08 14:00:01,15.5948394,0.0001623,53.2176,263.6171,42.4844,179.6642,-0.012347,-0.00906687,0.0,0 STARLINK-5446,1 54789U 22175AH  23067.58334491 -.00906687  00000-0 -12347-1 0  9991,2 54789  53.2176 263.6171 0001623  42.4844 179.6642 15.59483940 12481,6767.287,92.338,390.25,388.053,0.0
54789.0,STARLINK-5446,PAYLOAD,2023-03-08 22:00:00,15.58786085,0.0001395,53.2176,262.0038,41.4718,252.7468,-0.011675,-0.00840644,0.0,0 STARLINK-5446,1 54789U 22175AH  23067.91667824 -.00840644  00000-0 -11675-1 0  9990,2 54789  53.2176 262.0038 0001395  41.4718 252.7468 15.58786085  1304,6769.306,92.38,392.116,390.227,0.0
54789.0,STARLINK-5446,PAYLOAD,2023-03-09 22:00:00,15.56877262,0.0002061,53.2175,257.1668,29.5996,116.0557,-0.01356,-0.00902484,0.0,0 STARLINK-5446,1 54789U 22175AH  23068.91667824 -.00902484  00000-0 -13560-1 0  9997,2 54789  53.2175 257.1668 0002061  29.5996 116.0557 15.56877262 12694,6774.838,92.493,398.099,395.307,0.0
54789.0,STARLINK-5446,PAYLOAD,2023-03-10 00:00:00,15.56716414,0.0001903,53.2173,256.7644,28.8535,224.1041,-0.013672,-0.0090424,0.0,0 STARLINK-5446,1 54789U 22175AH  23069.00001157 -.00904240  00000-0 -13672-1 0  9995,2 54789  53.2173 256.7644 0001903  28.8535 224.1041 15.56716414  1302,6775.305,92.502,398.459,395.88,0.0
54789.0,STARLINK-5446,PAYLOAD,2023-03-10 14:00:01,15.5550349,0.0001613,53.2172,253.9481,39.7592,242.9914,-0.012577,-0.00803616,0.0,0 STARLINK-5446,1 54789U 22175AH  23069.58334491 -.00803616  00000-0 -12577-1 0  9996,2 54789  53.2172 253.9481 0001613  39.7592 242.9914 15.55503490 12790,6778.826,92.575,401.785,399.598,0.0
54789.0,STARLINK-5446,PAYLOAD,2023-03-10 22:00:00,15.54814338,0.0001605,53.2174,252.3446,28.7837,321.3419,-0.012028,-0.00753246,0.0,0 STARLINK-5446,1 54789U 22175AH  23069.91667824 -.00753246  00000-0 -12028-1 0  9996,2 54789  53.2174 252.3446 0001605  28.7837 321.3419 15.54814338 12840,6780.829,92.616,403.783,401.606,0.0
54789.0,STARLINK-5446,PAYLOAD,2023-03-11 06:00:00,15.54232812,0.0001496,53.2173,250.7379,40.8742,15.7905,-0.013922,-0.00844927,0.0,0 STARLINK-5446,1 54789U 22175AH  23070.25001157 -.00844927  00000-0 -13922-1 0  9997,2 54789  53.2173 250.7379 0001496  40.8742  15.7905 15.54232812 12906,6782.521,92.65,405.4,403.371,0.0
54789.0,STARLINK-5446,PAYLOAD,2023-03-11 14:00:01,15.53627207,0.000192,53.2167,249.1343,33.7295,88.7711,-0.015403,-0.0090809,0.0,0 STARLINK-5446,1 54789U 22175AH  23070.58335648 -.00908090  00000-0 -15403-1 0  9996,2 54789  53.2167 249.1343 0001920  33.7295  88.7711 15.53627207  1300,6784.283,92.686,407.451,404.846,0.0
54789.0,STARLINK-5446,PAYLOAD,2023-03-11 22:00:00,15.52979029,0.0001685,53.2173,247.5355,42.3143,145.1283,-0.015837,-0.00911415,0.0,0 STARLINK-5446,1 54789U 22175AH  23070.91667824 -.00911415  00000-0 -15837-1 0  9993,2 54789  53.2173 247.5355 0001685  42.3143 145.1283 15.52979029 13001,6786.171,92.725,409.179,406.892,0.0
54789.0,STARLINK-5446,PAYLOAD,2023-03-12 14:00:01,15.51667847,0.0001622,53.2174,244.336,36.7797,278.3408,-0.016373,-0.00899633,0.0,0 STARLINK-5446,1 54789U 22175AH  23071.58334491 -.00899633  00000-0 -16373-1 0  9991,2 54789  53.2174 244.3360 0001622  36.7797 278.3408 15.51667847  1305,6789.993,92.803,412.959,410.757,0.0
54789.0,STARLINK-5446,PAYLOAD,2023-03-12 22:00:00,15.51011236,0.0001889,53.2175,242.7414,27.8198,349.9643,-0.016582,-0.00890764,0.0,0 STARLINK-5446,1 54789U 22175AH  23071.91667824 -.00890764  00000-0 -16582-1 0  9995,2 54789  53.2175 242.7414 0001889  27.8198 349.9643 15.51011236 13156,6791.909,92.843,415.057,412.491,0.0
54789.0,STARLINK-5446,PAYLOAD,2023-03-13 00:00:00,15.50858347,0.0002008,53.2172,242.3419,30.2031,93.1208,-0.016968,-0.0091761,0.0,0 STARLINK-5446,1 54789U 22175AH  23072.00001157 -.00917610  00000-0 -16968-1 0  9995,2 54789  53.2172 242.3419 0002008  30.2031  93.1208 15.50858347  1302,6792.356,92.852,415.585,412.857,0.0
54789.0,STARLINK-5446,PAYLOAD,2023-03-13 14:00:01,15.49709554,0.0001996,53.217,239.5508,32.5548,108.2093,-0.017393,-0.00891773,0.0,0 STARLINK-5446,1 54789U 22175AH  23072.58334491 -.00891773  00000-0 -17393-1 0  9992,2 54789  53.2170 239.5508 0001996  32.5548 108.2093 15.49709554 13261,6795.712,92.921,418.933,416.221,0.0
54789.0,STARLINK-5446,PAYLOAD,2023-03-13 22:00:00,15.49064576,0.0001538,53.2173,237.961,47.2122,153.8634,-0.01795,-0.00911084,0.0,0 STARLINK-5446,1 54789U 22175AH  23072.91667824 -.00911084  00000-0 -17950-1 0  9995,2 54789  53.2173 237.9610 0001538  47.2122 153.8634 15.49064576  1300,6797.598,92.959,420.509,418.418,0.0
54789.0,STARLINK-5446,PAYLOAD,2023-03-14 06:00:00,15.4841734,0.0001552,53.2177,236.3688,42.1241,218.4848,-0.0185,-0.00917267,0.0,0 STARLINK-5446,1 54789U 22175AH  23073.25001157 -.00917267  00000-0 -18500-1 0  9995,2 54789  53.2177 236.3688 0001552  42.1241 218.4848 15.48417340 13368,6799.492,92.998,422.413,420.302,0.0
54789.0,STARLINK-5446,PAYLOAD,2023-03-14 14:00:01,15.47766573,0.0001836,53.2171,234.7799,30.0512,289.3089,-0.018944,-0.00918051,0.0,0 STARLINK-5446,1 54789U 22175AH  23073.58334491 -.00918051  00000-0 -18944-1 0  9995,2 54789  53.2171 234.7799 0001836  30.0512 289.3089 15.47766573  1308,6801.398,93.037,424.512,422.014,0.0
54789.0,STARLINK-5446,PAYLOAD,2023-03-14 22:00:00,15.47113613,0.0001704,53.217,233.1945,33.4106,343.9179,-0.019292,-0.00914118,0.0,0 STARLINK-5446,1 54789U 22175AH  23073.91667824 -.00914118  00000-0 -19292-1 0  9998,2 54789  53.2170 233.1945 0001704  33.4106 343.9179 15.47113613  1301,6803.312,93.077,426.336,424.017,0.0
54789.0,STARLINK-5446,PAYLOAD,2023-03-15 06:00:00,15.46462888,0.0001677,53.2175,231.607,36.7488,37.768,-0.01977,-0.00915652,0.0,0 STARLINK-5446,1 54789U 22175AH  23074.25001157 -.00915652  00000-0 -19770-1 0  9992,2 54789  53.2175 231.6070 0001677  36.7488  37.7680 15.46462888 13528,6805.22,93.116,428.226,425.944,0.0
54789.0,STARLINK-5446,PAYLOAD,2023-03-15 14:00:01,15.45787181,0.0001491,53.2173,230.0229,43.1597,87.7728,-0.019398,-0.00880501,0.0,0 STARLINK-5446,1 54789U 22175AH  23074.58334491 -.00880501  00000-0 -19398-1 0  9998,2 54789  53.2173 230.0229 0001491  43.1597  87.7728 15.45787181  1308,6807.203,93.156,430.083,428.053,0.0
54789.0,STARLINK-5446,PAYLOAD,2023-03-15 22:00:00,15.45141492,0.0001905,53.2173,228.4421,37.1619,149.3885,-0.019969,-0.00886094,0.0,0 STARLINK-5446,1 54789U 22175AH  23074.91667824 -.00886094  00000-0 -19969-1 0  9991,2 54789  53.2173 228.4421 0001905  37.1619 149.3885 15.45141492  1309,6809.099,93.195,432.261,429.667,0.0
